CCSDS_OMM_VERS = 2.0
CREATION_DATE  = 
ORIGINATOR     = 

OBJECT_NAME    = 1998-067XU
OBJECT_ID      = 1998-067XU
CENTER_NAME    = EARTH
REF_FRAME      = TEME
TIME_SYSTEM    = UTC
MEAN_ELEMENT_THEORY = SGP/SGP4

EPOCH          = 2026-01-30T21:14:26.391552
MEAN_MOTION    = 15.59753286
ECCENTRICITY   = .00026677
INCLINATION    = 51.6272
RA_OF_ASC_NODE = 256.9652
ARG_OF_PERICENTER = 154.8895
MEAN_ANOMALY   = 205.2228

EPHEMERIS_TYPE = 0
CLASSIFICATION_TYPE = U
NORAD_CAT_ID   = 66908
ELEMENT_SET_NO = 999
REV_AT_EPOCH   = 926
BSTAR          = .10561814E-2
MEAN_MOTION_DOT = .86669E-3
MEAN_MOTION_DDOT = 0

CCSDS_OMM_VERS = 2.0
CREATION_DATE  = 
ORIGINATOR     = 

OBJECT_NAME    = SILVERSAT
OBJECT_ID      = 1998-067XV
CENTER_NAME    = EARTH
REF_FRAME      = TEME
TIME_SYSTEM    = UTC
MEAN_ELEMENT_THEORY = SGP/SGP4

EPOCH          = 2026-01-30T20:48:13.154688
MEAN_MOTION    = 15.60884143
ECCENTRICITY   = .00032827
INCLINATION    = 51.6277
RA_OF_ASC_NODE = 256.8446
ARG_OF_PERICENTER = 167.0346
MEAN_ANOMALY   = 193.0732

EPHEMERIS_TYPE = 0
CLASSIFICATION_TYPE = U
NORAD_CAT_ID   = 66909
ELEMENT_SET_NO = 999
REV_AT_EPOCH   = 926
BSTAR          = .11094379E-2
MEAN_MOTION_DOT = .95218E-3
MEAN_MOTION_DDOT = 0

CCSDS_OMM_VERS = 2.0
CREATION_DATE  = 
ORIGINATOR     = 

OBJECT_NAME    = 1998-067XW
OBJECT_ID      = 1998-067XW
CENTER_NAME    = EARTH
REF_FRAME      = TEME
TIME_SYSTEM    = UTC
MEAN_ELEMENT_THEORY = SGP/SGP4

EPOCH          = 2026-01-30T08:42:22.581504
MEAN_MOTION    = 15.59763179
ECCENTRICITY   = .00015448
INCLINATION    = 51.6269
RA_OF_ASC_NODE = 259.4751
ARG_OF_PERICENTER = 149.9128
MEAN_ANOMALY   = 210.1954

EPHEMERIS_TYPE = 0
CLASSIFICATION_TYPE = U
NORAD_CAT_ID   = 66910
ELEMENT_SET_NO = 999
REV_AT_EPOCH   = 918
BSTAR          = .13335336E-2
MEAN_MOTION_DOT = .109916E-2
MEAN_MOTION_DDOT = 0

CCSDS_OMM_VERS = 2.0
CREATION_DATE  = 
ORIGINATOR     = 

OBJECT_NAME    = 1998-067XX
OBJECT_ID      = 1998-067XX
CENTER_NAME    = EARTH
REF_FRAME      = TEME
TIME_SYSTEM    = UTC
MEAN_ELEMENT_THEORY = SGP/SGP4

EPOCH          = 2026-01-30T15:37:58.731744
MEAN_MOTION    = 15.61893690
ECCENTRICITY   = .00023346
INCLINATION    = 51.6253
RA_OF_ASC_NODE = 257.6520
ARG_OF_PERICENTER = 184.9619
MEAN_ANOMALY   = 175.1352

EPHEMERIS_TYPE = 0
CLASSIFICATION_TYPE = U
NORAD_CAT_ID   = 66911
ELEMENT_SET_NO = 999
REV_AT_EPOCH   = 922
BSTAR          = .11968172E-2
MEAN_MOTION_DOT = .107007E-2
MEAN_MOTION_DDOT = 0

CCSDS_OMM_VERS = 2.0
CREATION_DATE  = 
ORIGINATOR     = 

OBJECT_NAME    = 1998-067XY
OBJECT_ID      = 1998-067XY
CENTER_NAME    = EARTH
REF_FRAME      = TEME
TIME_SYSTEM    = UTC
MEAN_ELEMENT_THEORY = SGP/SGP4

EPOCH          = 2026-01-30T20:36:50.023584
MEAN_MOTION    = 15.57416884
ECCENTRICITY   = .00023164
INCLINATION    = 51.6283
RA_OF_ASC_NODE = 257.5429
ARG_OF_PERICENTER = 124.5119
MEAN_ANOMALY   = 235.6092

EPHEMERIS_TYPE = 0
CLASSIFICATION_TYPE = U
NORAD_CAT_ID   = 66912
ELEMENT_SET_NO = 999
REV_AT_EPOCH   = 924
BSTAR          = .76604529E-3
MEAN_MOTION_DOT = .57178E-3
MEAN_MOTION_DDOT = 0

