1998-067XU              
1 66908U 98067XU  26030.88502768  .00086669  00000+0  10562-2 0  9994
2 66908  51.6272 256.9652 0002667 154.8895 205.2228 15.59753286  9269
SILVERSAT               
1 66909U 98067XV  26030.86681892  .00095218  00000+0  11094-2 0  9990
2 66909  51.6277 256.8446 0003282 167.0346 193.0732 15.60884143  9269
1998-067XW              
1 66910U 98067XW  26030.36276136  .00109916  00000+0  13335-2 0  9999
2 66910  51.6269 259.4751 0001544 149.9128 210.1954 15.59763179  9187
1998-067XX              
1 66911U 98067XX  26030.65137421  .00107007  00000+0  11968-2 0  9994
2 66911  51.6253 257.6520 0002334 184.9619 175.1352 15.61893690  9229
1998-067XY              
1 66912U 98067XY  26030.85891231  .00057178  00000+0  76605-3 0  9996
2 66912  51.6283 257.5429 0002316 124.5119 235.6092 15.57416884  9241
